{
  "type": "FeatureCollection",
  "features": [
    {
      "type": "Feature",
      "properties": {
        "norad_id": 57400,
        "name": "TIANMU-1 08",
        "group": "weather",
        "lat": -60.34081847466428,
        "lon": -155.57670871135826,
        "alt_km": 493.5830478203716,
        "timestamp": "2025-12-13T18:50:04.071647+00:00",
        "meta_object_name": "TIANMU-1 08",
        "meta_object_id": "2023-101B",
        "meta_epoch": "2025-12-13T06:46:53.827680",
        "meta_mean_motion": 15.28070299,
        "meta_eccentricity": 0.00075105,
        "meta_inclination": 97.287,
        "meta_ra_of_asc_node": 36.9182,
        "meta_arg_of_pericenter": 82.5773,
        "meta_mean_anomaly": 277.632,
        "meta_ephemeris_type": 0,
        "meta_classification_type": "U",
        "meta_norad_cat_id": 57400,
        "meta_element_set_no": 999,
        "meta_rev_at_epoch": 13323,
        "meta_bstar": 0.00046431928,
        "meta_mean_motion_dot": 0.00012656,
        "meta_mean_motion_ddot": 0,
        "tle_line1": "1 57400U 23101B   25347.28256745  .00012656  00000+0  46432-3 0  9994",
        "tle_line2": "2 57400  97.2870  36.9182 0007510  82.5773 277.6320 15.28070299133237"
      },
      "geometry": {
        "type": "Point",
        "coordinates": [
          -155.57670871135826,
          -60.34081847466428
        ]
      }
    },
    {
      "type": "Feature",
      "properties": {
        "norad_id": 57401,
        "name": "TIANMU-1 09",
        "group": "weather",
        "lat": -45.83956997316767,
        "lon": 44.489524966873574,
        "alt_km": 491.0842035560572,
        "timestamp": "2025-12-13T18:50:04.071658+00:00",
        "meta_object_name": "TIANMU-1 09",
        "meta_object_id": "2023-101C",
        "meta_epoch": "2025-12-13T06:27:51.126336",
        "meta_mean_motion": 15.28099686,
        "meta_eccentricity": 0.00067945,
        "meta_inclination": 97.2827,
        "meta_ra_of_asc_node": 36.4185,
        "meta_arg_of_pericenter": 82.6141,
        "meta_mean_anomaly": 277.5871,
        "meta_ephemeris_type": 0,
        "meta_classification_type": "U",
        "meta_norad_cat_id": 57401,
        "meta_element_set_no": 999,
        "meta_rev_at_epoch": 13323,
        "meta_bstar": 0.00045061298,
        "meta_mean_motion_dot": 0.00012289,
        "meta_mean_motion_ddot": 0,
        "tle_line1": "1 57401U 23101C   25347.26934174  .00012289  00000+0  45061-3 0  9991",
        "tle_line2": "2 57401  97.2827  36.4185 0006794  82.6141 277.5871 15.28099686133232"
      },
      "geometry": {
        "type": "Point",
        "coordinates": [
          44.489524966873574,
          -45.83956997316767
        ]
      }
    },
    {
      "type": "Feature",
      "properties": {
        "norad_id": 57402,
        "name": "TIANMU-1 10",
        "group": "weather",
        "lat": 53.50469709314882,
        "lon": -132.2616940059321,
        "alt_km": 472.43044477482,
        "timestamp": "2025-12-13T18:50:04.071680+00:00",
        "meta_object_name": "TIANMU-1 10",
        "meta_object_id": "2023-101D",
        "meta_epoch": "2025-12-13T07:17:07.487232",
        "meta_mean_motion": 15.28090732,
        "meta_eccentricity": 0.00084961,
        "meta_inclination": 97.2907,
        "meta_ra_of_asc_node": 37.3023,
        "meta_arg_of_pericenter": 81.7895,
        "meta_mean_anomaly": 278.4308,
        "meta_ephemeris_type": 0,
        "meta_classification_type": "U",
        "meta_norad_cat_id": 57402,
        "meta_element_set_no": 999,
        "meta_rev_at_epoch": 13323,
        "meta_bstar": 0.00045683814,
        "meta_mean_motion_dot": 0.00012461,
        "meta_mean_motion_ddot": 0,
        "tle_line1": "1 57402U 23101D   25347.30355888  .00012461  00000+0  45684-3 0  9999",
        "tle_line2": "2 57402  97.2907  37.3023 0008496  81.7895 278.4308 15.28090732133238"
      },
      "geometry": {
        "type": "Point",
        "coordinates": [
          -132.2616940059321,
          53.50469709314882
        ]
      }
    },
    {
      "type": "Feature",
      "properties": {
        "norad_id": 57490,
        "name": "FENGYUN 3F",
        "group": "weather",
        "lat": -20.814979094839796,
        "lon": 59.40160094715846,
        "alt_km": 831.1663707692069,
        "timestamp": "2025-12-13T18:50:04.071699+00:00",
        "meta_object_name": "FENGYUN 3F",
        "meta_object_id": "2023-111A",
        "meta_epoch": "2025-12-13T07:05:41.745120",
        "meta_mean_motion": 14.19893882,
        "meta_eccentricity": 6.832e-05,
        "meta_inclination": 98.7083,
        "meta_ra_of_asc_node": 55.5801,
        "meta_arg_of_pericenter": 103.3597,
        "meta_mean_anomaly": 256.7656,
        "meta_ephemeris_type": 0,
        "meta_classification_type": "U",
        "meta_norad_cat_id": 57490,
        "meta_element_set_no": 999,
        "meta_rev_at_epoch": 12248,
        "meta_bstar": 9.1190232e-05,
        "meta_mean_motion_dot": 1.5e-06,
        "meta_mean_motion_ddot": 0,
        "tle_line1": "1 57490U 23111A   25347.29562205  .00000150  00000+0  91190-4 0  9994",
        "tle_line2": "2 57490  98.7083  55.5801 0000683 103.3597 256.7656 14.19893882122488"
      },
      "geometry": {
        "type": "Point",
        "coordinates": [
          59.40160094715846,
          -20.814979094839796
        ]
      }
    },
    {
      "type": "Feature",
      "properties": {
        "norad_id": 58584,
        "name": "ARKTIKA-M 2",
        "group": "weather",
        "lat": -21.333675062502564,
        "lon": 6.147780194400614,
        "alt_km": 4430.500864339222,
        "timestamp": "2025-12-13T18:50:04.071714+00:00",
        "meta_object_name": "ARKTIKA-M 2",
        "meta_object_id": "2023-198A",
        "meta_epoch": "2025-12-08T20:10:13.977120",
        "meta_mean_motion": 2.0060476,
        "meta_eccentricity": 0.68646991,
        "meta_inclination": 63.2247,
        "meta_ra_of_asc_node": 175.3152,
        "meta_arg_of_pericenter": 268.1185,
        "meta_mean_anomaly": 18.8267,
        "meta_ephemeris_type": 0,
        "meta_classification_type": "U",
        "meta_norad_cat_id": 58584,
        "meta_element_set_no": 999,
        "meta_rev_at_epoch": 1450,
        "meta_bstar": 0,
        "meta_mean_motion_dot": 1.66e-06,
        "meta_mean_motion_ddot": 0,
        "tle_line1": "1 58584U 23198A   25342.84043955  .00000166  00000+0  00000+0 0  9998",
        "tle_line2": "2 58584  63.2247 175.3152 6864699 268.1185  18.8267  2.00604760 14506"
      },
      "geometry": {
        "type": "Point",
        "coordinates": [
          6.147780194400614,
          -21.333675062502564
        ]
      }
    },
    {
      "type": "Feature",
      "properties": {
        "norad_id": 58645,
        "name": "TIANMU-1 11",
        "group": "weather",
        "lat": -67.13023795539934,
        "lon": 25.238127714493128,
        "alt_km": 493.9615812417769,
        "timestamp": "2025-12-13T18:50:04.071729+00:00",
        "meta_object_name": "TIANMU-1 11",
        "meta_object_id": "2023-205A",
        "meta_epoch": "2025-12-13T08:06:24.965280",
        "meta_mean_motion": 15.24613238,
        "meta_eccentricity": 0.00078728,
        "meta_inclination": 97.3612,
        "meta_ra_of_asc_node": 6.9506,
        "meta_arg_of_pericenter": 307.9795,
        "meta_mean_anomaly": 52.0731,
        "meta_ephemeris_type": 0,
        "meta_classification_type": "U",
        "meta_norad_cat_id": 58645,
        "meta_element_set_no": 999,
        "meta_rev_at_epoch": 10918,
        "meta_bstar": 0.00042263546,
        "meta_mean_motion_dot": 0.00010368,
        "meta_mean_motion_ddot": 0,
        "tle_line1": "1 58645U 23205A   25347.33778895  .00010368  00000+0  42264-3 0  9999",
        "tle_line2": "2 58645  97.3612   6.9506 0007872 307.9795  52.0731 15.24613238109180"
      },
      "geometry": {
        "type": "Point",
        "coordinates": [
          25.238127714493128,
          -67.13023795539934
        ]
      }
    },
    {
      "type": "Feature",
      "properties": {
        "norad_id": 58646,
        "name": "TIANMU-1 12",
        "group": "weather",
        "lat": 36.04426529583437,
        "lon": -167.40760389583582,
        "alt_km": 493.1010421415667,
        "timestamp": "2025-12-13T18:50:04.071740+00:00",
        "meta_object_name": "TIANMU-1 12",
        "meta_object_id": "2023-205B",
        "meta_epoch": "2025-12-13T07:10:46.066656",
        "meta_mean_motion": 15.24494207,
        "meta_eccentricity": 0.00058449,
        "meta_inclination": 97.3599,
        "meta_ra_of_asc_node": 6.718,
        "meta_arg_of_pericenter": 288.9295,
        "meta_mean_anomaly": 71.1309,
        "meta_ephemeris_type": 0,
        "meta_classification_type": "U",
        "meta_norad_cat_id": 58646,
        "meta_element_set_no": 999,
        "meta_rev_at_epoch": 10916,
        "meta_bstar": 0.00039415124,
        "meta_mean_motion_dot": 9.626e-05,
        "meta_mean_motion_ddot": 0,
        "tle_line1": "1 58646U 23205B   25347.29914429  .00009626  00000+0  39415-3 0  9999",
        "tle_line2": "2 58646  97.3599   6.7180 0005844 288.9295  71.1309 15.24494207109165"
      },
      "geometry": {
        "type": "Point",
        "coordinates": [
          -167.40760389583582,
          36.04426529583437
        ]
      }
    }
  ]
}